NUSAT-48 (HENRIETTA LE*)
1 60498U 24149AG  26068.80506098  .00012988  00000+0  45212-3 0  9999
2 60498  97.3923 150.8264 0002754 263.3026  96.7901 15.29812597 86946
STARLINK-36428          
1 67362U 26003AE  26068.48382604  .00037240  00000+0  13547-2 0  9999
2 67362  43.0027 228.1124 0001227 240.5697 119.5033 15.27610726  8790
